OBJECT_NAME,OBJECT_ID,EPOCH,MEAN_MOTION,ECCENTRICITY,INCLINATION,RA_OF_ASC_NODE,ARG_OF_PERICENTER,MEAN_ANOMALY,EPHEMERIS_TYPE,CLASSIFICATION_TYPE,NORAD_CAT_ID,ELEMENT_SET_NO,REV_AT_EPOCH,BSTAR,MEAN_MOTION_DOT,MEAN_MOTION_DDOT
AISTECHSAT 2,2018-099L,2026-06-10T02:09:13.759776,15.15377402,.0003761,97.4299,209.2790,342.7247,17.3857,0,U,43768,999,41120,.28315E-3,.5279E-4,0
FOX-1CLIFF (AO-95),2018-099N,2026-06-09T17:40:40.880928,15.26553683,.0008751,97.4390,221.0109,24.8412,335.3246,0,U,43770,999,41208,.4088E-3,.10631E-3,0
RANGE-A,2018-099R,2026-06-10T08:49:25.601088,15.13331332,.0010598,97.3972,204.1464,20.8290,339.3371,0,U,43773,999,41146,.21872E-3,.3838E-4,0
SNUSAT-2,2018-099AA,2026-06-10T02:24:30.191616,15.21731800,.0009028,97.4067,214.5930,327.4253,32.6425,0,U,43782,999,41195,.34153E-3,.7677E-4,0
SNUGLITE,2018-099AC,2026-06-10T09:28:10.353792,15.27029608,.0001578,97.3877,215.7417,342.3411,17.7773,0,U,43784,999,41228,.39875E-3,.10508E-3,0
ITASAT,2018-099AE,2026-06-10T07:15:37.491264,15.18970169,.0012847,97.4034,212.9518,24.1662,336.0173,0,U,43786,999,41186,.31057E-3,.644E-4,0
EAGLET-I,2018-099AJ,2026-06-10T02:35:45.957984,15.12885389,.0011395,97.4234,210.9642,18.8513,341.3138,0,U,43790,999,41126,.18894E-3,.3265E-4,0
ESEO,2018-099AL,2026-06-10T01:30:08.392896,15.04218958,.00120687,97.3964,198.7556,4.1107,356.0217,0,U,43792,999,41073,.1315539E-3,.1772E-4,0
THEA,2018-099AQ,2026-06-10T03:52:15.578688,15.34778285,.0005967,97.4446,230.7863,315.0043,45.0716,0,U,43796,999,41161,.49333E-3,.16577E-3,0
ASTROCAST 0.1,2018-099AS,2026-06-09T23:06:45.224352,15.49059824,.00046082,97.4378,239.2374,230.8574,129.2267,0,U,43798,999,41331,.6488025E-3,.35205E-3,0
JY1SAT (JO-97),2018-099AX,2026-06-10T10:33:54.696096,15.33439241,.0004138,97.4136,224.2518,295.7294,64.3520,0,U,43803,999,41259,.49534E-3,.15949E-3,0
SUOMI-100,2018-099AY,2026-06-10T03:14:42.656352,15.28255069,.0008475,97.4189,221.5551,308.8959,51.1524,0,U,43804,999,41234,.38309E-3,.10485E-3,0
CENTAURI-1,2018-099BD,2026-06-10T09:49:01.462080,15.16298357,.0013766,97.4228,213.2740,358.6341,1.4852,0,U,43809,999,41147,.25736E-3,.493E-4,0
GLOBAL-2,2018-099BG,2026-06-10T09:01:15.777120,15.08633121,.0006325,97.3563,198.1726,162.6933,197.4512,0,U,43812,999,41088,.2081E-3,.3198E-4,0
SEAHAWK-1,2018-099BQ,2026-06-10T02:31:15.406752,15.22692328,.0007326,97.3965,213.6988,344.2168,15.8839,0,U,43820,999,41145,.35238E-3,.8149E-4,0
SAUDISAT 5A,2018-102A,2026-06-10T11:38:39.654816,15.27977893,.0010541,97.3074,223.1953,149.9977,210.1869,0,U,43831,999,41465,.18085E-3,.487E-4,0
SAUDISAT 5B,2018-102C,2026-06-10T12:07:25.741920,15.28238694,.001119,97.3180,226.2724,152.4659,207.7175,0,U,43833,999,41477,.17379E-3,.4716E-4,0
ISAT,2018-111D,2026-06-10T07:39:50.687424,15.64078892,.0001565,97.5882,96.0179,50.1914,309.9482,0,U,43879,999,41009,.92419E-3,.88054E-3,0
UWE-4,2018-111E,2026-06-10T00:43:32.539872,15.45678034,.00069041,97.5850,89.0931,11.8229,348.3181,0,U,43880,999,40967,.71452966E-3,.34515E-3,0
D-STAR ONE (SPARROW),2018-111F,2026-06-10T07:49:52.711392,15.72480163,.0004605,97.6115,101.5245,102.0704,258.1075,0,U,43881,999,41029,.10477E-2,.141476E-2,0
JILIN-1 09,2019-005B,2026-06-10T12:47:46.133376,15.20456507,.0003773,97.4733,256.5529,107.7558,252.4089,0,U,43943,999,40813,.2086E-3,.4484E-4,0
JILIN-1 10,2019-005E,2026-06-10T12:03:25.549056,15.25650497,.0006719,97.4777,260.3072,308.2121,51.8511,0,U,43946,999,40829,.201E-3,.5043E-4,0
EGYPTSAT-A (MISRSAT-A),2019-008A,2026-06-10T11:35:30.474240,14.72301484,.0001227,98.0121,226.3365,93.2267,266.9080,0,U,44047,999,39225,.31028E-3,.1912E-4,0
EMISAT,2019-018A,2026-06-10T11:46:46.668288,14.43684646,.0017402,98.4648,220.3280,235.9708,123.9830,0,U,44078,999,37909,.10157E-3,.301E-5,0
JILIN-1 GAOFEN 3A,2019-032C,2026-06-10T12:02:39.122880,15.32486898,.000655,44.9764,33.7257,263.1687,96.8452,0,U,44312,999,38681,.3526E-3,.10988E-3,0
WT 1B,2019-032G,2026-06-10T12:39:20.168928,15.27056170,.0009448,44.9728,97.2887,214.6876,145.3391,0,U,44316,999,38606,.37195E-3,.9787E-4,0
PROX-1,2019-036A,2026-06-10T07:05:53.568096,14.90447065,.0005287,23.9911,160.2814,313.9538,46.0524,0,U,44339,999,37244,.11774E-2,.12056E-3,0
NPSAT1,2019-036B,2026-06-09T22:39:27.747360,14.74518284,.00078602,23.9993,264.9339,124.7548,235.3689,0,U,44340,999,37142,.64999031E-3,.4669E-4,0
