AISTECHSAT 2            
1 43768U 18099L   26161.08974259  .00005279  00000+0  28315-3 0  9999
2 43768  97.4299 209.2790 0003761 342.7247  17.3857 15.15377402411209
FOX-1CLIFF (AO-95)      
1 43770U 18099N   26160.73658427  .00010631  00000+0  40880-3 0  9998
2 43770  97.4390 221.0109 0008751  24.8412 335.3246 15.26553683412087
RANGE-A                 
1 43773U 18099R   26161.36765742  .00003838  00000+0  21872-3 0  9991
2 43773  97.3972 204.1464 0010598  20.8290 339.3371 15.13331332411468
SNUSAT-2                
1 43782U 18099AA  26161.10034944  .00007677  00000+0  34153-3 0  9997
2 43782  97.4067 214.5930 0009028 327.4253  32.6425 15.21731800411958
SNUGLITE                
1 43784U 18099AC  26161.39456428  .00010508  00000+0  39875-3 0  9998
2 43784  97.3877 215.7417 0001578 342.3411  17.7773 15.27029608412284
ITASAT                  
1 43786U 18099AE  26161.30251726  .00006440  00000+0  31057-3 0  9999
2 43786  97.4034 212.9518 0012847  24.1662 336.0173 15.18970169411868
EAGLET-I                
1 43790U 18099AJ  26161.10817081  .00003265  00000+0  18894-3 0  9990
2 43790  97.4234 210.9642 0011395  18.8513 341.3138 15.12885389411260
ESEO                    
1 43792U 18099AL  26161.06259714  .00001772  00000+0  13155-3 0  9996
2 43792  97.3964 198.7556 0012068   4.1107 356.0217 15.04218958410738
THEA                    
1 43796U 18099AQ  26161.16129142  .00016577  00000+0  49333-3 0  9998
2 43796  97.4446 230.7863 0005967 315.0043  45.0716 15.34778285411613
ASTROCAST 0.1           
1 43798U 18099AS  26160.96302343  .00035205  00000+0  64880-3 0  9996
2 43798  97.4378 239.2374 0004608 230.8574 129.2267 15.49059824413316
JY1SAT (JO-97)          
1 43803U 18099AX  26161.44021639  .00015949  00000+0  49534-3 0  9995
2 43803  97.4136 224.2518 0004138 295.7294  64.3520 15.33439241412594
SUOMI-100               
1 43804U 18099AY  26161.13521593  .00010485  00000+0  38309-3 0  9994
2 43804  97.4189 221.5551 0008475 308.8959  51.1524 15.28255069412341
CENTAURI-1              
1 43809U 18099BD  26161.40904470  .00004930  00000+0  25736-3 0  9996
2 43809  97.4228 213.2740 0013766 358.6341   1.4852 15.16298357411474
GLOBAL-2                
1 43812U 18099BG  26161.37587705  .00003198  00000+0  20810-3 0  9997
2 43812  97.3563 198.1726 0006325 162.6933 197.4512 15.08633121410883
SEAHAWK-1               
1 43820U 18099BQ  26161.10503943  .00008149  00000+0  35238-3 0  9990
2 43820  97.3965 213.6988 0007326 344.2168  15.8839 15.22692328411450
SAUDISAT 5A             
1 43831U 18102A   26161.48518119  .00004870  00000+0  18085-3 0  9997
2 43831  97.3074 223.1953 0010541 149.9977 210.1869 15.27977893414658
SAUDISAT 5B             
1 43833U 18102C   26161.50515905  .00004716  00000+0  17379-3 0  9996
2 43833  97.3180 226.2724 0011190 152.4659 207.7175 15.28238694414770
ISAT                    
1 43879U 18111D   26161.31933666  .00088054  00000+0  92419-3 0  9998
2 43879  97.5882  96.0179 0001565  50.1914 309.9482 15.64078892410090
UWE-4                   
1 43880U 18111E   26161.03023773  .00034515  00000+0  71453-3 0  9996
2 43880  97.5850  89.0931 0006904  11.8229 348.3181 15.45678034409678
D-STAR ONE (SPARROW)    
1 43881U 18111F   26161.32630453  .00141476  00000+0  10477-2 0  9991
2 43881  97.6115 101.5245 0004605 102.0704 258.1075 15.72480163410293
JILIN-1 09              
1 43943U 19005B   26161.53317284  .00004484  00000+0  20860-3 0  9995
2 43943  97.4733 256.5529 0003773 107.7558 252.4089 15.20456507408136
JILIN-1 10              
1 43946U 19005E   26161.50237904  .00005043  00000+0  20100-3 0  9994
2 43946  97.4777 260.3072 0006719 308.2121  51.8511 15.25650497408297
EGYPTSAT-A (MISRSAT-A)  
1 44047U 19008A   26161.48299160  .00001912  00000+0  31028-3 0  9991
2 44047  98.0121 226.3365 0001227  93.2267 266.9080 14.72301484392256
EMISAT                  
1 44078U 19018A   26161.49081792  .00000301  00000+0  10157-3 0  9998
2 44078  98.4648 220.3280 0017402 235.9708 123.9830 14.43684646379099
JILIN-1 GAOFEN 3A       
1 44312U 19032C   26161.50184170  .00010988  00000+0  35260-3 0  9995
2 44312  44.9764  33.7257 0006550 263.1687  96.8452 15.32486898386810
WT 1B                   
1 44316U 19032G   26161.52731677  .00009787  00000+0  37195-3 0  9995
2 44316  44.9728  97.2887 0009448 214.6876 145.3391 15.27056170386067
PROX-1                  
1 44339U 19036A   26161.29575889  .00012056  00000+0  11774-2 0  9996
2 44339  23.9911 160.2814 0005287 313.9538  46.0524 14.90447065372447
NPSAT1                  
1 44340U 19036B   26160.94407115  .00004669  00000+0  64999-3 0  9994
2 44340  23.9993 264.9339 0007860 124.7548 235.3689 14.74518284371427
